[{"OBJECT_NAME":"STARLINK-1651","OBJECT_ID":"2020-062AT","EPOCH":"2026-03-02T21:34:30.042048","MEAN_MOTION":16.42914037,"ECCENTRICITY":0.0006417,"INCLINATION":53.0202,"RA_OF_ASC_NODE":299.8381,"ARG_OF_PERICENTER":248.9983,"MEAN_ANOMALY":111.0378,"EPHEMERIS_TYPE":0,"CLASSIFICATION_TYPE":"U","NORAD_CAT_ID":46366,"ELEMENT_SET_NO":999,"REV_AT_EPOCH":30478,"BSTAR":0.00052076,"MEAN_MOTION_DOT":0.11338563,"MEAN_MOTION_DDOT":1.2405e-5},{"OBJECT_NAME":"STARLINK-1687","OBJECT_ID":"2020-070K","EPOCH":"2026-03-02T22:26:08.013408","MEAN_MOTION":16.15109568,"ECCENTRICITY":0.001039,"INCLINATION":53.0303,"RA_OF_ASC_NODE":125.4237,"ARG_OF_PERICENTER":3.9708,"MEAN_ANOMALY":356.1408,"EPHEMERIS_TYPE":0,"CLASSIFICATION_TYPE":"U","NORAD_CAT_ID":46541,"ELEMENT_SET_NO":999,"REV_AT_EPOCH":29962,"BSTAR":0.0013471,"MEAN_MOTION_DOT":0.01777946,"MEAN_MOTION_DDOT":0.0028617},{"OBJECT_NAME":"STARLINK-1712","OBJECT_ID":"2020-070BB","EPOCH":"2026-03-02T20:00:01.999008","MEAN_MOTION":15.94407489,"ECCENTRICITY":0.000699,"INCLINATION":53.0306,"RA_OF_ASC_NODE":115.6492,"ARG_OF_PERICENTER":334.1429,"MEAN_ANOMALY":281.8588,"EPHEMERIS_TYPE":0,"CLASSIFICATION_TYPE":"U","NORAD_CAT_ID":46581,"ELEMENT_SET_NO":999,"REV_AT_EPOCH":601,"BSTAR":0.0011202,"MEAN_MOTION_DOT":0.00429774,"MEAN_MOTION_DDOT":8.4356e-5},{"OBJECT_NAME":"STARLINK-1848","OBJECT_ID":"2020-074B","EPOCH":"2026-03-02T21:08:28.121856","MEAN_MOTION":16.24659105,"ECCENTRICITY":0.0006625,"INCLINATION":53.0253,"RA_OF_ASC_NODE":285.7918,"ARG_OF_PERICENTER":246.323,"MEAN_ANOMALY":113.7115,"EPHEMERIS_TYPE":0,"CLASSIFICATION_TYPE":"U","NORAD_CAT_ID":46740,"ELEMENT_SET_NO":999,"REV_AT_EPOCH":29657,"BSTAR":0.0012094,"MEAN_MOTION_DOT":0.03521303,"MEAN_MOTION_DDOT":1.1928e-5},{"OBJECT_NAME":"WILDTRACKCUBE-SIMBA","OBJECT_ID":"2021-022K","EPOCH":"2026-03-02T18:40:46.096320","MEAN_MOTION":16.13912444,"ECCENTRICITY":0.0007101,"INCLINATION":97.3814,"RA_OF_ASC_NODE":343.475,"ARG_OF_PERICENTER":121.4058,"MEAN_ANOMALY":238.7923,"EPHEMERIS_TYPE":0,"CLASSIFICATION_TYPE":"U","NORAD_CAT_ID":47941,"ELEMENT_SET_NO":999,"REV_AT_EPOCH":27473,"BSTAR":0.0013686,"MEAN_MOTION_DOT":0.01594751,"MEAN_MOTION_DDOT":0.0020789},{"OBJECT_NAME":"JILIN-1 GAOFEN 3D02","OBJECT_ID":"2021-061C","EPOCH":"2026-03-02T20:25:29.947584","MEAN_MOTION":16.10153929,"ECCENTRICITY":0.0004724,"INCLINATION":97.2934,"RA_OF_ASC_NODE":142.2697,"ARG_OF_PERICENTER":239.755,"MEAN_ANOMALY":120.3267,"EPHEMERIS_TYPE":0,"CLASSIFICATION_TYPE":"U","NORAD_CAT_ID":49005,"ELEMENT_SET_NO":999,"REV_AT_EPOCH":25971,"BSTAR":0.0013209,"MEAN_MOTION_DOT":0.01219786,"MEAN_MOTION_DDOT":0.0009539},{"OBJECT_NAME":"STARLINK-3269","OBJECT_ID":"2021-125AQ","EPOCH":"2026-03-02T18:36:54.192672","MEAN_MOTION":16.12512162,"ECCENTRICITY":0.0011033,"INCLINATION":53.2004,"RA_OF_ASC_NODE":165.9931,"ARG_OF_PERICENTER":335.8269,"MEAN_ANOMALY":24.2248,"EPHEMERIS_TYPE":0,"CLASSIFICATION_TYPE":"U","NORAD_CAT_ID":50194,"ELEMENT_SET_NO":999,"REV_AT_EPOCH":23721,"BSTAR":0.0016396,"MEAN_MOTION_DOT":0.0181087,"MEAN_MOTION_DDOT":0.0027892},{"OBJECT_NAME":"LYNK TOWER 1","OBJECT_ID":"2022-033F","EPOCH":"2026-03-02T18:55:16.833792","MEAN_MOTION":16.08007939,"ECCENTRICITY":0.0005924,"INCLINATION":97.2574,"RA_OF_ASC_NODE":166.8623,"ARG_OF_PERICENTER":198.1753,"MEAN_ANOMALY":161.9319,"EPHEMERIS_TYPE":0,"CLASSIFICATION_TYPE":"U","NORAD_CAT_ID":52162,"ELEMENT_SET_NO":999,"REV_AT_EPOCH":22013,"BSTAR":0.00074408,"MEAN_MOTION_DOT":0.00607357,"MEAN_MOTION_DDOT":0.00018917},{"OBJECT_NAME":"STARLINK-3767","OBJECT_ID":"2022-045AX","EPOCH":"2026-03-02T20:00:01.999008","MEAN_MOTION":15.95942436,"ECCENTRICITY":0.0001051,"INCLINATION":53.2125,"RA_OF_ASC_NODE":207.3804,"ARG_OF_PERICENTER":65.6487,"MEAN_ANOMALY":40.8317,"EPHEMERIS_TYPE":0,"CLASSIFICATION_TYPE":"U","NORAD_CAT_ID":52376,"ELEMENT_SET_NO":999,"REV_AT_EPOCH":583,"BSTAR":0.0030828,"MEAN_MOTION_DOT":0.01274723,"MEAN_MOTION_DDOT":0.00080888},{"OBJECT_NAME":"NUSAT-28 (ALICE LEE)","OBJECT_ID":"2022-057R","EPOCH":"2026-03-02T21:15:24.301152","MEAN_MOTION":15.95011648,"ECCENTRICITY":0.0006717,"INCLINATION":97.4982,"RA_OF_ASC_NODE":211.0229,"ARG_OF_PERICENTER":290.2851,"MEAN_ANOMALY":69.7702,"EPHEMERIS_TYPE":0,"CLASSIFICATION_TYPE":"U","NORAD_CAT_ID":52747,"ELEMENT_SET_NO":999,"REV_AT_EPOCH":21096,"BSTAR":0.0012093,"MEAN_MOTION_DOT":0.00465954,"MEAN_MOTION_DDOT":8.9524e-5},{"OBJECT_NAME":"STARLINK-6284","OBJECT_ID":"2023-061AF","EPOCH":"2026-03-02T18:05:35.689056","MEAN_MOTION":16.24210028,"ECCENTRICITY":0.0005766,"INCLINATION":42.9912,"RA_OF_ASC_NODE":180.2776,"ARG_OF_PERICENTER":302.4754,"MEAN_ANOMALY":57.5575,"EPHEMERIS_TYPE":0,"CLASSIFICATION_TYPE":"U","NORAD_CAT_ID":56403,"ELEMENT_SET_NO":999,"REV_AT_EPOCH":15634,"BSTAR":0.00071877,"MEAN_MOTION_DOT":0.02053787,"MEAN_MOTION_DDOT":8.9929e-6},{"OBJECT_NAME":"STARLINK-6201","OBJECT_ID":"2023-064AQ","EPOCH":"2026-03-02T20:00:01.999008","MEAN_MOTION":15.92494715,"ECCENTRICITY":0.000362,"INCLINATION":69.9977,"RA_OF_ASC_NODE":133.2838,"ARG_OF_PERICENTER":279.0903,"MEAN_ANOMALY":10.537,"EPHEMERIS_TYPE":0,"CLASSIFICATION_TYPE":"U","NORAD_CAT_ID":56486,"ELEMENT_SET_NO":999,"REV_AT_EPOCH":583,"BSTAR":0.002562,"MEAN_MOTION_DOT":0.00869415,"MEAN_MOTION_DDOT":0.00032454},{"OBJECT_NAME":"SHIYAN-25 (SY-25)","OBJECT_ID":"2023-087A","EPOCH":"2026-03-02T20:11:49.490592","MEAN_MOTION":16.00930911,"ECCENTRICITY":0.0012483,"INCLINATION":96.7149,"RA_OF_ASC_NODE":122.9176,"ARG_OF_PERICENTER":243.5328,"MEAN_ANOMALY":116.4672,"EPHEMERIS_TYPE":0,"CLASSIFICATION_TYPE":"U","NORAD_CAT_ID":57047,"ELEMENT_SET_NO":999,"REV_AT_EPOCH":15779,"BSTAR":-0.00015786,"MEAN_MOTION_DOT":-0.00085753,"MEAN_MOTION_DDOT":4.7409e-6},{"OBJECT_NAME":"STARLINK-6151","OBJECT_ID":"2023-090T","EPOCH":"2026-03-02T15:08:24.480960","MEAN_MOTION":16.1229446,"ECCENTRICITY":0.0017496,"INCLINATION":42.9703,"RA_OF_ASC_NODE":192.445,"ARG_OF_PERICENTER":338.4648,"MEAN_ANOMALY":21.5497,"EPHEMERIS_TYPE":0,"CLASSIFICATION_TYPE":"U","NORAD_CAT_ID":57118,"ELEMENT_SET_NO":999,"REV_AT_EPOCH":15074,"BSTAR":0.0010073,"MEAN_MOTION_DOT":0.01171402,"MEAN_MOTION_DDOT":0.00088641},{"OBJECT_NAME":"STARLINK-30210","OBJECT_ID":"2023-096C","EPOCH":"2026-03-02T15:45:00.010368","MEAN_MOTION":16.00873021,"ECCENTRICITY":0.0026228,"INCLINATION":42.9631,"RA_OF_ASC_NODE":179.7521,"ARG_OF_PERICENTER":353.0236,"MEAN_ANOMALY":7.0274,"EPHEMERIS_TYPE":0,"CLASSIFICATION_TYPE":"U","NORAD_CAT_ID":57292,"ELEMENT_SET_NO":999,"REV_AT_EPOCH":14738,"BSTAR":0.0013215,"MEAN_MOTION_DOT":0.00767939,"MEAN_MOTION_DDOT":0.00028074},{"OBJECT_NAME":"STARLINK-30232","OBJECT_ID":"2023-096P","EPOCH":"2026-03-02T17:50:19.128480","MEAN_MOTION":16.01352833,"ECCENTRICITY":0.0025636,"INCLINATION":42.9714,"RA_OF_ASC_NODE":178.7918,"ARG_OF_PERICENTER":354.9933,"MEAN_ANOMALY":5.0686,"EPHEMERIS_TYPE":0,"CLASSIFICATION_TYPE":"U","NORAD_CAT_ID":57303,"ELEMENT_SET_NO":999,"REV_AT_EPOCH":14738,"BSTAR":0.0013239,"MEAN_MOTION_DOT":0.00789902,"MEAN_MOTION_DDOT":0.00030028}]
